[Satellite]
VERSION=1.1
NAME=DEIMOS-2
NICKNAME=DEIMOS-2
TLE1=1 40013U 14033D   15055.41607434  .00001611  00000-0  20126-3 0  9997
TLE2=2 40013  97.9492 314.7699 0001225 127.5478 232.5840 14.83745349 37027
